STARLINK-37022          
1 68101U 26044A   26089.25002315 -.01872131  00000+0 -19503-1 0  9998
2 68101  97.2846  50.3833 0001452  99.9166 326.6401 15.67450217  4709
STARLINK-37046          
1 68102U 26044B   26089.25002315 -.01872720  00000+0 -19080-1 0  9993
2 68102  97.2846  50.3880 0001539  99.7479 336.2620 15.67994203  4701
STARLINK-37018          
1 68103U 26044C   26089.25002315 -.01833912  00000+0 -18850-1 0  9998
2 68103  97.2844  50.3924 0001491 100.4320 345.1119 15.68248232  4652
STARLINK-37041          
1 68104U 26044D   26089.25002315 -.01841854  00000+0 -18287-1 0  9997
2 68104  97.2844  50.3971 0001538  98.0471 358.1879 15.69102583  4652
STARLINK-37021          
1 68105U 26044E   26089.25002315 -.01877012  00000+0 -19764-1 0  9994
2 68105  97.2847  50.3945 0001640 100.3450 352.4715 15.67193513  4652
STARLINK-37024          
1 68106U 26044F   26089.25002315 -.01842318  00000+0 -18173-1 0  9999
2 68106  97.2842  50.4031 0001646 101.8957   9.1302 15.69258689  4655
STARLINK-37005          
1 68107U 26044G   26089.25002315 -.01838758  00000+0 -18711-1 0  9991
2 68107  97.2847  50.3944 0001544  98.7927 352.1963 15.68501632  4653
STARLINK-37017          
1 68108U 26044H   26089.25002315 -.01840223  00000+0 -17660-1 0  9994
2 68108  97.2842  50.4058 0001635  98.6293  17.5246 15.69914242  4654
STARLINK-36833          
1 68109U 26044J   26088.84560944 -.00705314  00000+0 -57154-2 0  9999
2 68109  97.2841  49.9881 0004718 146.9426 213.2133 15.72650594  4652
STARLINK-36830          
1 68110U 26044K   26088.97372029 -.00255851  00000+0 -20394-2 0  9992
2 68110  97.2841  50.1203 0005809 136.5566 223.6156 15.71792348  4673
STARLINK-36791          
1 68111U 26044L   26088.33531555 -.00265080  00000+0 -18534-2 0  9992
2 68111  97.2842  49.4581 0002644  63.2809 296.8727 15.74914516  4576
STARLINK-36893          
1 68112U 26044M   26089.16038192  .00464392  00000+0  29806-2 0  9993
2 68112  97.2840  50.3250 0014086 201.6793 158.3878 15.74836967  4709
