CCSDS_OMM_VERS = 2.0
CREATION_DATE  = 
ORIGINATOR     = 

OBJECT_NAME    = STARLINK-37022
OBJECT_ID      = 2026-044A
CENTER_NAME    = EARTH
REF_FRAME      = TEME
TIME_SYSTEM    = UTC
MEAN_ELEMENT_THEORY = SGP/SGP4

EPOCH          = 2026-03-30T06:00:02.000160
MEAN_MOTION    = 15.67450217
ECCENTRICITY   = .00014526
INCLINATION    = 97.2846
RA_OF_ASC_NODE = 50.3833
ARG_OF_PERICENTER = 99.9166
MEAN_ANOMALY   = 326.6401

EPHEMERIS_TYPE = 0
CLASSIFICATION_TYPE = U
NORAD_CAT_ID   = 68101
ELEMENT_SET_NO = 999
REV_AT_EPOCH   = 470
BSTAR          = -.19503069E-1
MEAN_MOTION_DOT = -.1872131E-1
MEAN_MOTION_DDOT = 0

CCSDS_OMM_VERS = 2.0
CREATION_DATE  = 
ORIGINATOR     = 

OBJECT_NAME    = STARLINK-37046
OBJECT_ID      = 2026-044B
CENTER_NAME    = EARTH
REF_FRAME      = TEME
TIME_SYSTEM    = UTC
MEAN_ELEMENT_THEORY = SGP/SGP4

EPOCH          = 2026-03-30T06:00:02.000160
MEAN_MOTION    = 15.67994203
ECCENTRICITY   = .00015392
INCLINATION    = 97.2846
RA_OF_ASC_NODE = 50.3880
ARG_OF_PERICENTER = 99.7479
MEAN_ANOMALY   = 336.2620

EPHEMERIS_TYPE = 0
CLASSIFICATION_TYPE = U
NORAD_CAT_ID   = 68102
ELEMENT_SET_NO = 999
REV_AT_EPOCH   = 470
BSTAR          = -.1908007E-1
MEAN_MOTION_DOT = -.187272E-1
MEAN_MOTION_DDOT = 0

CCSDS_OMM_VERS = 2.0
CREATION_DATE  = 
ORIGINATOR     = 

OBJECT_NAME    = STARLINK-37018
OBJECT_ID      = 2026-044C
CENTER_NAME    = EARTH
REF_FRAME      = TEME
TIME_SYSTEM    = UTC
MEAN_ELEMENT_THEORY = SGP/SGP4

EPOCH          = 2026-03-30T06:00:02.000160
MEAN_MOTION    = 15.68248232
ECCENTRICITY   = .00014919
INCLINATION    = 97.2844
RA_OF_ASC_NODE = 50.3924
ARG_OF_PERICENTER = 100.4320
MEAN_ANOMALY   = 345.1119

EPHEMERIS_TYPE = 0
CLASSIFICATION_TYPE = U
NORAD_CAT_ID   = 68103
ELEMENT_SET_NO = 999
REV_AT_EPOCH   = 465
BSTAR          = -.18850459E-1
MEAN_MOTION_DOT = -.1833912E-1
MEAN_MOTION_DDOT = 0

CCSDS_OMM_VERS = 2.0
CREATION_DATE  = 
ORIGINATOR     = 

OBJECT_NAME    = STARLINK-37041
OBJECT_ID      = 2026-044D
CENTER_NAME    = EARTH
REF_FRAME      = TEME
TIME_SYSTEM    = UTC
MEAN_ELEMENT_THEORY = SGP/SGP4

EPOCH          = 2026-03-30T06:00:02.000160
MEAN_MOTION    = 15.69102583
ECCENTRICITY   = .00015386
INCLINATION    = 97.2844
RA_OF_ASC_NODE = 50.3971
ARG_OF_PERICENTER = 98.0471
MEAN_ANOMALY   = 358.1879

EPHEMERIS_TYPE = 0
CLASSIFICATION_TYPE = U
NORAD_CAT_ID   = 68104
ELEMENT_SET_NO = 999
REV_AT_EPOCH   = 465
BSTAR          = -.18286832E-1
MEAN_MOTION_DOT = -.1841854E-1
MEAN_MOTION_DDOT = 0

CCSDS_OMM_VERS = 2.0
CREATION_DATE  = 
ORIGINATOR     = 

OBJECT_NAME    = STARLINK-37021
OBJECT_ID      = 2026-044E
CENTER_NAME    = EARTH
REF_FRAME      = TEME
TIME_SYSTEM    = UTC
MEAN_ELEMENT_THEORY = SGP/SGP4

EPOCH          = 2026-03-30T06:00:02.000160
MEAN_MOTION    = 15.67193513
ECCENTRICITY   = .00016403
INCLINATION    = 97.2847
RA_OF_ASC_NODE = 50.3945
ARG_OF_PERICENTER = 100.3450
MEAN_ANOMALY   = 352.4715

EPHEMERIS_TYPE = 0
CLASSIFICATION_TYPE = U
NORAD_CAT_ID   = 68105
ELEMENT_SET_NO = 999
REV_AT_EPOCH   = 465
BSTAR          = -.19764339E-1
MEAN_MOTION_DOT = -.1877012E-1
MEAN_MOTION_DDOT = 0

CCSDS_OMM_VERS = 2.0
CREATION_DATE  = 
ORIGINATOR     = 

OBJECT_NAME    = STARLINK-37024
OBJECT_ID      = 2026-044F
CENTER_NAME    = EARTH
REF_FRAME      = TEME
TIME_SYSTEM    = UTC
MEAN_ELEMENT_THEORY = SGP/SGP4

EPOCH          = 2026-03-30T06:00:02.000160
MEAN_MOTION    = 15.69258689
ECCENTRICITY   = .00016463
INCLINATION    = 97.2842
RA_OF_ASC_NODE = 50.4031
ARG_OF_PERICENTER = 101.8957
MEAN_ANOMALY   = 9.1302

EPHEMERIS_TYPE = 0
CLASSIFICATION_TYPE = U
NORAD_CAT_ID   = 68106
ELEMENT_SET_NO = 999
REV_AT_EPOCH   = 465
BSTAR          = -.18172996E-1
MEAN_MOTION_DOT = -.1842318E-1
MEAN_MOTION_DDOT = 0

CCSDS_OMM_VERS = 2.0
CREATION_DATE  = 
ORIGINATOR     = 

OBJECT_NAME    = STARLINK-37005
OBJECT_ID      = 2026-044G
CENTER_NAME    = EARTH
REF_FRAME      = TEME
TIME_SYSTEM    = UTC
MEAN_ELEMENT_THEORY = SGP/SGP4

EPOCH          = 2026-03-30T06:00:02.000160
MEAN_MOTION    = 15.68501632
ECCENTRICITY   = .00015447
INCLINATION    = 97.2847
RA_OF_ASC_NODE = 50.3944
ARG_OF_PERICENTER = 98.7927
MEAN_ANOMALY   = 352.1963

EPHEMERIS_TYPE = 0
CLASSIFICATION_TYPE = U
NORAD_CAT_ID   = 68107
ELEMENT_SET_NO = 999
REV_AT_EPOCH   = 465
BSTAR          = -.18710828E-1
MEAN_MOTION_DOT = -.1838758E-1
MEAN_MOTION_DDOT = 0

CCSDS_OMM_VERS = 2.0
CREATION_DATE  = 
ORIGINATOR     = 

OBJECT_NAME    = STARLINK-37017
OBJECT_ID      = 2026-044H
CENTER_NAME    = EARTH
REF_FRAME      = TEME
TIME_SYSTEM    = UTC
MEAN_ELEMENT_THEORY = SGP/SGP4

EPOCH          = 2026-03-30T06:00:02.000160
MEAN_MOTION    = 15.69914242
ECCENTRICITY   = .00016358
INCLINATION    = 97.2842
RA_OF_ASC_NODE = 50.4058
ARG_OF_PERICENTER = 98.6293
MEAN_ANOMALY   = 17.5246

EPHEMERIS_TYPE = 0
CLASSIFICATION_TYPE = U
NORAD_CAT_ID   = 68108
ELEMENT_SET_NO = 999
REV_AT_EPOCH   = 465
BSTAR          = -.17660461E-1
MEAN_MOTION_DOT = -.1840223E-1
MEAN_MOTION_DDOT = 0

CCSDS_OMM_VERS = 2.0
CREATION_DATE  = 
ORIGINATOR     = 

OBJECT_NAME    = STARLINK-36833
OBJECT_ID      = 2026-044J
CENTER_NAME    = EARTH
REF_FRAME      = TEME
TIME_SYSTEM    = UTC
MEAN_ELEMENT_THEORY = SGP/SGP4

EPOCH          = 2026-03-29T20:17:40.655616
MEAN_MOTION    = 15.72650594
ECCENTRICITY   = .00047183
INCLINATION    = 97.2841
RA_OF_ASC_NODE = 49.9881
ARG_OF_PERICENTER = 146.9426
MEAN_ANOMALY   = 213.2133

EPHEMERIS_TYPE = 0
CLASSIFICATION_TYPE = U
NORAD_CAT_ID   = 68109
ELEMENT_SET_NO = 999
REV_AT_EPOCH   = 465
BSTAR          = -.57153594E-2
MEAN_MOTION_DOT = -.705314E-2
MEAN_MOTION_DDOT = 0

CCSDS_OMM_VERS = 2.0
CREATION_DATE  = 
ORIGINATOR     = 

OBJECT_NAME    = STARLINK-36830
OBJECT_ID      = 2026-044K
CENTER_NAME    = EARTH
REF_FRAME      = TEME
TIME_SYSTEM    = UTC
MEAN_ELEMENT_THEORY = SGP/SGP4

EPOCH          = 2026-03-29T23:22:09.433056
MEAN_MOTION    = 15.71792348
ECCENTRICITY   = .0005809
INCLINATION    = 97.2841
RA_OF_ASC_NODE = 50.1203
ARG_OF_PERICENTER = 136.5566
MEAN_ANOMALY   = 223.6156

EPHEMERIS_TYPE = 0
CLASSIFICATION_TYPE = U
NORAD_CAT_ID   = 68110
ELEMENT_SET_NO = 999
REV_AT_EPOCH   = 467
BSTAR          = -.20394065E-2
MEAN_MOTION_DOT = -.255851E-2
MEAN_MOTION_DDOT = 0

CCSDS_OMM_VERS = 2.0
CREATION_DATE  = 
ORIGINATOR     = 

OBJECT_NAME    = STARLINK-36791
OBJECT_ID      = 2026-044L
CENTER_NAME    = EARTH
REF_FRAME      = TEME
TIME_SYSTEM    = UTC
MEAN_ELEMENT_THEORY = SGP/SGP4

EPOCH          = 2026-03-29T08:02:51.263520
MEAN_MOTION    = 15.74914516
ECCENTRICITY   = .00026445
INCLINATION    = 97.2842
RA_OF_ASC_NODE = 49.4581
ARG_OF_PERICENTER = 63.2809
MEAN_ANOMALY   = 296.8727

EPHEMERIS_TYPE = 0
CLASSIFICATION_TYPE = U
NORAD_CAT_ID   = 68111
ELEMENT_SET_NO = 999
REV_AT_EPOCH   = 457
BSTAR          = -.18534162E-2
MEAN_MOTION_DOT = -.26508E-2
MEAN_MOTION_DDOT = 0

CCSDS_OMM_VERS = 2.0
CREATION_DATE  = 
ORIGINATOR     = 

OBJECT_NAME    = STARLINK-36893
OBJECT_ID      = 2026-044M
CENTER_NAME    = EARTH
REF_FRAME      = TEME
TIME_SYSTEM    = UTC
MEAN_ELEMENT_THEORY = SGP/SGP4

EPOCH          = 2026-03-30T03:50:56.997888
MEAN_MOTION    = 15.74836967
ECCENTRICITY   = .00140861
INCLINATION    = 97.2840
RA_OF_ASC_NODE = 50.3250
ARG_OF_PERICENTER = 201.6793
MEAN_ANOMALY   = 158.3878

EPHEMERIS_TYPE = 0
CLASSIFICATION_TYPE = U
NORAD_CAT_ID   = 68112
ELEMENT_SET_NO = 999
REV_AT_EPOCH   = 470
BSTAR          = .29806144E-2
MEAN_MOTION_DOT = .464392E-2
MEAN_MOTION_DDOT = 0

